{"fetched_at":"2026-07-18T17:29:36.480Z","source":"https://celestrak.org/NORAD/elements/gp.php?GROUP=spire&FORMAT=JSON","constellation":"spire","records":[{"OBJECT_NAME":"LEMUR-2-MYRA","OBJECT_ID":"2025-276EC","EPOCH":"2026-07-18T03:17:27.144672","CLASSIFICATION_TYPE":"U","MEAN_MOTION":15.00608305,"ECCENTRICITY":0.0018644,"INCLINATION":97.522,"RA_OF_ASC_NODE":269.0099,"ARG_OF_PERICENTER":45.33,"MEAN_ANOMALY":314.944,"EPHEMERIS_TYPE":0,"NORAD_CAT_ID":66787,"ELEMENT_SET_NO":999,"REV_AT_EPOCH":3485,"BSTAR":0.0002520207,"MEAN_MOTION_DOT":0.00003137,"MEAN_MOTION_DDOT":0},{"OBJECT_NAME":"LEMUR-2 FIKRETDENGIZ","OBJECT_ID":"2026-004A","EPOCH":"2026-07-18T06:14:21.146208","CLASSIFICATION_TYPE":"U","MEAN_MOTION":14.88528561,"ECCENTRICITY":0.00099574,"INCLINATION":97.803,"RA_OF_ASC_NODE":197.3463,"ARG_OF_PERICENTER":47.3369,"MEAN_ANOMALY":312.8686,"EPHEMERIS_TYPE":0,"NORAD_CAT_ID":67363,"ELEMENT_SET_NO":999,"REV_AT_EPOCH":2790,"BSTAR":0.00021285013,"MEAN_MOTION_DOT":0.00001926,"MEAN_MOTION_DDOT":0},{"OBJECT_NAME":"TWILIGHT-1 OBJECT B","OBJECT_ID":"2026-004B","EPOCH":"2026-07-17T23:05:45.496896","CLASSIFICATION_TYPE":"U","MEAN_MOTION":14.87798598,"ECCENTRICITY":0.00095408,"INCLINATION":97.8076,"RA_OF_ASC_NODE":197.0524,"ARG_OF_PERICENTER":37.8134,"MEAN_ANOMALY":322.3751,"EPHEMERIS_TYPE":0,"NORAD_CAT_ID":67364,"ELEMENT_SET_NO":999,"REV_AT_EPOCH":2786,"BSTAR":0.000099977192,"MEAN_MOTION_DOT":0.00000859,"MEAN_MOTION_DDOT":0},{"OBJECT_NAME":"LEMUR-2-MARIO-SOUSA","OBJECT_ID":"2026-004C","EPOCH":"2026-07-18T05:44:43.602720","CLASSIFICATION_TYPE":"U","MEAN_MOTION":14.88741249,"ECCENTRICITY":0.00096246,"INCLINATION":97.8003,"RA_OF_ASC_NODE":197.3211,"ARG_OF_PERICENTER":48.6883,"MEAN_ANOMALY":311.5161,"EPHEMERIS_TYPE":0,"NORAD_CAT_ID":67365,"ELEMENT_SET_NO":999,"REV_AT_EPOCH":2791,"BSTAR":0.00020392949,"MEAN_MOTION_DOT":0.00001853,"MEAN_MOTION_DDOT":0},{"OBJECT_NAME":"LEMUR-2-SONNENBLUME","OBJECT_ID":"2026-004E","EPOCH":"2026-07-18T07:26:27.267648","CLASSIFICATION_TYPE":"U","MEAN_MOTION":14.88462003,"ECCENTRICITY":0.00092265,"INCLINATION":97.8002,"RA_OF_ASC_NODE":197.3618,"ARG_OF_PERICENTER":49.6235,"MEAN_ANOMALY":310.5786,"EPHEMERIS_TYPE":0,"NORAD_CAT_ID":67367,"ELEMENT_SET_NO":999,"REV_AT_EPOCH":2792,"BSTAR":0.00014391664,"MEAN_MOTION_DOT":0.00001282,"MEAN_MOTION_DDOT":0},{"OBJECT_NAME":"LEMUR-2-WOBLER","OBJECT_ID":"2026-004F","EPOCH":"2026-07-18T05:33:29.983392","CLASSIFICATION_TYPE":"U","MEAN_MOTION":14.88710075,"ECCENTRICITY":0.00092888,"INCLINATION":97.8054,"RA_OF_ASC_NODE":197.4389,"ARG_OF_PERICENTER":41.2949,"MEAN_ANOMALY":318.8968,"EPHEMERIS_TYPE":0,"NORAD_CAT_ID":67368,"ELEMENT_SET_NO":999,"REV_AT_EPOCH":2791,"BSTAR":0.00018669337,"MEAN_MOTION_DOT":0.0000169,"MEAN_MOTION_DDOT":0},{"OBJECT_NAME":"LEMUR-2-GRAM-E-SUE","OBJECT_ID":"2026-004H","EPOCH":"2026-07-18T06:59:17.440512","CLASSIFICATION_TYPE":"U","MEAN_MOTION":14.88597062,"ECCENTRICITY":0.00084046,"INCLINATION":97.7987,"RA_OF_ASC_NODE":197.3598,"ARG_OF_PERICENTER":52.6854,"MEAN_ANOMALY":307.5128,"EPHEMERIS_TYPE":0,"NORAD_CAT_ID":67370,"ELEMENT_SET_NO":999,"REV_AT_EPOCH":2792,"BSTAR":0.00013225615,"MEAN_MOTION_DOT":0.00001178,"MEAN_MOTION_DDOT":0},{"OBJECT_NAME":"LEMUR-2-KATIE","OBJECT_ID":"2026-004AA","EPOCH":"2026-07-18T05:52:20.394336","CLASSIFICATION_TYPE":"U","MEAN_MOTION":14.90265631,"ECCENTRICITY":0.0003222,"INCLINATION":97.8047,"RA_OF_ASC_NODE":197.8759,"ARG_OF_PERICENTER":26.4666,"MEAN_ANOMALY":333.6716,"EPHEMERIS_TYPE":0,"NORAD_CAT_ID":67387,"ELEMENT_SET_NO":999,"REV_AT_EPOCH":2793,"BSTAR":0.00020627832,"MEAN_MOTION_DOT":0.00001947,"MEAN_MOTION_DDOT":0},{"OBJECT_NAME":"LEMUR-2-HCS-BAZUS","OBJECT_ID":"2026-004AB","EPOCH":"2026-07-18T07:26:37.768704","CLASSIFICATION_TYPE":"U","MEAN_MOTION":14.90274461,"ECCENTRICITY":0.0002716,"INCLINATION":97.8039,"RA_OF_ASC_NODE":197.9184,"ARG_OF_PERICENTER":27.5254,"MEAN_ANOMALY":332.6107,"EPHEMERIS_TYPE":0,"NORAD_CAT_ID":67388,"ELEMENT_SET_NO":999,"REV_AT_EPOCH":2794,"BSTAR":0.00017935875,"MEAN_MOTION_DOT":0.00001686,"MEAN_MOTION_DDOT":0}]}
